<?xml version="1.0" encoding="UTF-8"?>
<kml xmlns="http://www.opengis.net/kml/2.2">
  <Document>
    <name>Contract Territory March 2019</name>
    <description/>
    <Style id="line-DB4436-1200-nodesc-normal">
      <LineStyle>
        <color>ff3644db</color>
        <width>1.2</width>
      </LineStyle>
      <BalloonStyle>
        <text><![CDATA[<h3>$[name]</h3>]]></text>
      </BalloonStyle>
    </Style>
    <Style id="line-DB4436-1200-nodesc-highlight">
      <LineStyle>
        <color>ff3644db</color>
        <width>1.8</width>
      </LineStyle>
      <BalloonStyle>
        <text><![CDATA[<h3>$[name]</h3>]]></text>
      </BalloonStyle>
    </Style>
    <StyleMap id="line-DB4436-1200-nodesc">
      <Pair>
        <key>normal</key>
        <styleUrl>#line-DB4436-1200-nodesc-normal</styleUrl>
      </Pair>
      <Pair>
        <key>highlight</key>
        <styleUrl>#line-DB4436-1200-nodesc-highlight</styleUrl>
      </Pair>
    </StyleMap>
    <Style id="poly-DB4436-1-79-nodesc-normal">
      <LineStyle>
        <color>ff3644db</color>
        <width>0.001</width>
      </LineStyle>
      <PolyStyle>
        <color>4f3644db</color>
        <fill>1</fill>
        <outline>1</outline>
      </PolyStyle>
      <BalloonStyle>
        <text><![CDATA[<h3>$[name]</h3>]]></text>
      </BalloonStyle>
    </Style>
    <Style id="poly-DB4436-1-79-nodesc-highlight">
      <LineStyle>
        <color>ff3644db</color>
        <width>0.0015</width>
      </LineStyle>
      <PolyStyle>
        <color>4f3644db</color>
        <fill>1</fill>
        <outline>1</outline>
      </PolyStyle>
      <BalloonStyle>
        <text><![CDATA[<h3>$[name]</h3>]]></text>
      </BalloonStyle>
    </Style>
    <StyleMap id="poly-DB4436-1-79-nodesc">
      <Pair>
        <key>normal</key>
        <styleUrl>#poly-DB4436-1-79-nodesc-normal</styleUrl>
      </Pair>
      <Pair>
        <key>highlight</key>
        <styleUrl>#poly-DB4436-1-79-nodesc-highlight</styleUrl>
      </Pair>
    </StyleMap>
    <Folder>
      <name>Editing Layer </name>
      <Placemark>
        <name>Cotswolds</name>
        <styleUrl>#poly-DB4436-1-79-nodesc</styleUrl>
        <Polygon>
          <outerBoundaryIs>
            <LinearRing>
              <tessellate>1</tessellate>
              <coordinates>
                -2.8921276,52.1421192,0
                -2.7915703,52.0188231,0
                -2.6243359,51.916524,0
                -2.3386913,51.8537979,0
                -2.2549206,51.8453147,0
                -2.1217113,51.7926831,0
                -2.0708996,51.7195762,0
                -1.6918713,51.5644711,0
                -1.7399364,51.6079881,0
                -1.7124706,51.8071205,0
                -1.634193,51.9597032,0
                -1.3732677,52.2557514,0
                -2.1027779,52.4162006,0
                -2.2768449,52.4581607,0
                -2.4375353,52.5099257,0
                -2.7670711,52.616596,0
                -2.8571796,52.4789591,0
                -2.8941798,52.3482651,0
                -2.874081,52.2524726,0
                -2.8865428,52.1968746,0
                -2.8921276,52.1421192,0
              </coordinates>
            </LinearRing>
          </outerBoundaryIs>
        </Polygon>
      </Placemark>
      <Placemark>
        <name>East Anglia</name>
        <styleUrl>#poly-DB4436-1-79-nodesc</styleUrl>
        <Polygon>
          <outerBoundaryIs>
            <LinearRing>
              <tessellate>1</tessellate>
              <coordinates>
                0.86036,52.83222,0
                0.76011,52.76206,0
                0.69763,52.68012,0
                0.69625,52.63014,0
                0.70861,52.58052,0
                0.53352,52.33659,0
                0.46623,52.29168,0
                0.29663,52.20971,0
                0.262299,52.126744,0
                0.263672,51.903613,0
                0.277405,51.607783,0
                0.30624,51.59626,0
                0.46073,51.61076,0
                0.50056,51.60437,0
                0.59257,51.59925,0
                0.73196,51.54163,0
                0.7814,51.52156,0
                0.95581,51.6146,0
                0.92834,51.74063,0
                0.83496,51.72362,0
                0.90087,51.77463,0
                1.08215,51.76104,0
                1.21398,51.80861,0
                1.32934,51.8731,0
                1.23046,51.87988,0
                1.39526,51.98149,0
                1.51062,52.06937,0
                1.57104,52.093,0
                1.62597,52.24462,0
                1.66442,52.32191,0
                1.7633,52.46939,0
                1.73034,52.61305,0
                1.6809,52.73961,0
                1.40625,52.90558,0
                1.29089,52.94863,0
                1.0382,52.96849,0
                0.86242,52.97841,0
                0.86036,52.83222,0
              </coordinates>
            </LinearRing>
          </outerBoundaryIs>
        </Polygon>
      </Placemark>
      <Placemark>
        <name>Lake District</name>
        <styleUrl>#poly-DB4436-1-79-nodesc</styleUrl>
        <Polygon>
          <outerBoundaryIs>
            <LinearRing>
              <tessellate>1</tessellate>
              <coordinates>
                -2.4873613,54.1489326,0
                -2.5196303,54.1702368,0
                -2.4619636,54.2377075,0
                -2.5100248,54.2754069,0
                -2.5512265,54.3194863,0
                -2.4756982,54.3475173,0
                -2.3081674,54.5399697,0
                -2.6116605,54.6513554,0
                -2.6968236,54.9623941,0
                -2.9495033,54.9907705,0
                -3.0621123,54.9813089,0
                -3.1362132,54.9539393,0
                -3.2467998,54.9671072,0
                -3.3151792,54.9383297,0
                -3.3642369,54.9016345,0
                -3.4795789,54.7338828,0
                -3.577085,54.6561014,0
                -3.5839419,54.5877313,0
                -3.6773243,54.5176361,0
                -3.4191417,54.3258836,0
                -3.4246299,54.2810135,0
                -3.2927959,54.1686156,0
                -3.2680731,54.1002259,0
                -3.2007741,54.0357624,0
                -3.0346172,54.1654093,0
                -2.9577069,54.1485204,0
                -2.862959,54.1838917,0
                -2.795663,54.1284107,0
                -2.4873613,54.1489326,0
              </coordinates>
            </LinearRing>
          </outerBoundaryIs>
        </Polygon>
      </Placemark>
      <Placemark>
        <name>South-East</name>
        <styleUrl>#poly-DB4436-1-79-nodesc</styleUrl>
        <Polygon>
          <outerBoundaryIs>
            <LinearRing>
              <tessellate>1</tessellate>
              <coordinates>
                -0.5589312,51.4086162,0
                -0.6873347,51.3704831,0
                -0.8102502,51.2266528,0
                -0.8459543,51.0525994,0
                -0.8226071,50.8223984,0
                -0.8727307,50.7516394,0
                -0.8116172,50.7286128,0
                -0.7896466,50.7164441,0
                -0.7594363,50.7286128,0
                -0.7539462,50.7494728,0
                -0.7237256,50.7703228,0
                -0.6001334,50.7928928,0
                -0.4744747,50.798542,0
                -0.3666626,50.8033085,0
                -0.2883849,50.8232663,0
                -0.1716556,50.8189325,0
                0.0096177,50.7842136,0
                0.13053,50.7516959,0
                0.2513121,50.7255648,0
                0.3749105,50.8158909,0
                0.4854627,50.8332437,0
                0.6111287,50.8484227,0
                0.6783432,50.8718333,0
                0.7779814,50.9263957,0
                0.9846656,50.9108126,0
                0.9812312,50.9921352,0
                1.0231164,51.0387926,0
                1.1954705,51.0737454,0
                1.321388,51.1080523,0
                1.3952862,51.149184,0
                1.4124532,51.172009,0
                1.4186339,51.2352525,0
                1.3753768,51.3237394,0
                1.4141667,51.3155878,0
                1.4481571,51.3297442,0
                1.4598349,51.3966224,0
                1.3307425,51.4000525,0
                1.3211259,51.3897705,0
                1.1961599,51.3897725,0
                0.9544554,51.3726326,0
                0.9228677,51.4107641,0
                0.7100009,51.4719627,0
                0.4801808,51.4872559,0
                0.4559119,51.4627009,0
                0.4384278,51.449521,0
                0.3308843,51.4446092,0
                0.3114959,51.4650517,0
                0.2920995,51.456407,0
                0.2577275,51.4537642,0
                0.2501762,51.4309853,0
                0.2025541,51.3938848,0
                0.1843917,51.3701053,0
                0.1602957,51.3641829,0
                0.1287585,51.3453513,0
                0.1085574,51.3303546,0
                0.1030009,51.3184505,0
                0.1063713,51.3069755,0
                0.1135479,51.2842551,0
                0.0857124,51.2765639,0
                0.0642533,51.2715061,0
                0.0379916,51.2690209,0
                0.0134494,51.266101,0
                -0.0110911,51.2657539,0
                -0.054784,51.2563679,0
                -0.0895405,51.2549178,0
                -0.1370852,51.2623091,0
                -0.1690081,51.2658992,0
                -0.1861474,51.2584588,0
                -0.2217897,51.2555792,0
                -0.2574068,51.2712684,0
                -0.2654977,51.2811534,0
                -0.2775791,51.2871646,0
                -0.3058819,51.2914231,0
                -0.3232359,51.301029,0
                -0.3392245,51.3119215,0
                -0.4031602,51.3038767,0
                -0.443219,51.3169106,0
                -0.4822138,51.3274548,0
                -0.4943911,51.345535,0
                -0.5486102,51.4085724,0
                -0.5589312,51.4086162,0
              </coordinates>
            </LinearRing>
          </outerBoundaryIs>
        </Polygon>
      </Placemark>
      <Placemark>
        <name>South Midlands</name>
        <styleUrl>#poly-DB4436-1-79-nodesc</styleUrl>
        <Polygon>
          <outerBoundaryIs>
            <LinearRing>
              <tessellate>1</tessellate>
              <coordinates>
                -0.4305518,51.7159675,0
                -0.308316,51.70958,0
                -0.2774213,51.725746,0
                -0.1703027,51.7138385,0
                0.266426,51.617584,0
                0.2526924,51.867594,0
                0.2499463,52.125497,0
                -0.0453238,52.123806,0
                -1.3637431,52.2517886,0
                -1.6191918,51.961625,0
                -1.698846,51.8090415,0
                -1.7237313,51.6087992,0
                -1.6635614,51.5600566,0
                -1.4035443,51.6117572,0
                -1.1371348,51.6397456,0
                -0.515013,51.5574273,0
                -0.482462,51.5082273,0
                -0.4367317,51.5791955,0
                -0.4305518,51.7159675,0
              </coordinates>
            </LinearRing>
          </outerBoundaryIs>
        </Polygon>
      </Placemark>
      <Placemark>
        <name>Yorkshire</name>
        <styleUrl>#poly-DB4436-1-79-nodesc</styleUrl>
        <Polygon>
          <outerBoundaryIs>
            <LinearRing>
              <tessellate>1</tessellate>
              <coordinates>
                -2.475925,54.3344745,0
                -2.5418373,54.3152541,0
                -2.4978911,54.2639643,0
                -2.4539552,54.2350846,0
                -2.5143673,54.1676142,0
                -2.4649318,54.1322246,0
                -2.3495938,54.1064754,0
                -2.2836792,54.0291159,0
                -2.212276,53.9903864,0
                -2.1628387,53.8707368,0
                -2.028263,53.6141217,0
                -2.0344409,53.4892967,0
                -1.5277484,53.2860057,0
                -1.4868985,53.2682497,0
                -1.4686991,53.3026202,0
                -1.2126073,53.3633046,0
                -1.0316956,53.4725523,0
                -0.8940458,53.5619576,0
                -0.8391251,53.6954981,0
                -0.6798328,53.7247595,0
                -0.6139297,53.7247601,0
                -0.5535055,53.7052608,0
                -0.2898643,53.7345134,0
                -0.092132,53.6271654,0
                0.0561623,53.630417,0
                0.1440442,53.5913179,0
                0.1275644,53.6434478,0
                -0.1635429,53.9128347,0
                -0.2239604,54.0452641,0
                -0.1415712,54.1097149,0
                -0.0591901,54.1161558,0
                -0.2404423,54.1708439,0
                -0.5315588,54.440041,0
                -0.7183111,54.5325692,0
                -0.7622456,54.5070588,0
                -1.1247533,54.4016854,0
                -1.3279809,54.3888936,0
                -1.7069711,54.4464204,0
                -1.8827337,54.519809,0
                -2.0530049,54.5134277,0
                -2.1518638,54.5006669,0
                -2.2617225,54.5293661,0
                -2.3056576,54.5261758,0
                -2.475925,54.3344745,0
              </coordinates>
            </LinearRing>
          </outerBoundaryIs>
        </Polygon>
      </Placemark>
      <Placemark>
        <name>East of England</name>
        <styleUrl>#poly-DB4436-1-79-nodesc</styleUrl>
        <Polygon>
          <outerBoundaryIs>
            <LinearRing>
              <tessellate>1</tessellate>
              <coordinates>
                -1.4086328,52.4422203,0
                -1.3955296,52.4134036,0
                -1.3529507,52.245057,0
                -0.0396969,52.1242884,0
                0.2548135,52.126818,0
                0.2788397,52.2068179,0
                0.4243851,52.2740878,0
                0.5177594,52.3311779,0
                0.6935095,52.5721678,0
                0.6825214,52.6255478,0
                0.6825214,52.6755278,0
                0.737442,52.7487277,0
                0.8472929,52.8284379,0
                0.8472928,52.9708979,0
                0.506772,52.9708978,0
                0.424386,52.8450278,0
                0.3474993,52.8135079,0
                -0.4028721,52.6488791,0
                -0.4921168,52.6488793,0
                -0.5793049,52.6288798,0
                -0.6774754,52.6159672,0
                -0.8161631,52.5876159,0
                -0.9273817,52.564671,0
                -1.0104543,52.5517335,0
                -1.0420369,52.5450545,0
                -1.0784242,52.5371208,0
                -1.1100056,52.5300224,0
                -1.1680587,52.5129036,0
                -1.2645179,52.482804,0
                -1.4086328,52.4422203,0
              </coordinates>
            </LinearRing>
          </outerBoundaryIs>
        </Polygon>
      </Placemark>
      <Placemark>
        <name><![CDATA[Mid & North Wales]]></name>
        <styleUrl>#poly-DB4436-1-79-nodesc</styleUrl>
        <Polygon>
          <outerBoundaryIs>
            <LinearRing>
              <tessellate>1</tessellate>
              <coordinates>
                -3.1249234,53.2512442,0
                -3.3322896,53.3718575,0
                -3.57055,53.33087,0
                -3.59802,53.30133,0
                -3.73535,53.31446,0
                -3.87268,53.37022,0
                -3.88916,53.32103,0
                -4.0155,53.27835,0
                -4.06494,53.31774,0
                -4.11987,53.34399,0
                -4.22424,53.32759,0
                -4.30664,53.43244,0
                -4.46594,53.44553,0
                -4.54834,53.42262,0
                -4.59777,53.35055,0
                -4.68566,53.32431,0
                -4.71862,53.3079,0
                -4.61425,53.28492,0
                -4.4934,53.16324,0
                -4.37805,53.14018,0
                -4.35607,53.06102,0
                -4.61975,52.92215,0
                -4.78454,52.78947,0
                -4.64721,52.80276,0
                -4.53186,52.78615,0
                -4.4165,52.89564,0
                -4.20227,52.91552,0
                -4.14184,52.88239,0
                -4.14184,52.81272,0
                -4.05944,52.71633,0
                -4.13635,52.61639,0
                -4.11987,52.56633,0
                -4.04846,52.53961,0
                -4.14184,52.32526,0
                -4.2517,52.26143,0
                -4.36157,52.22779,0
                -4.46731,52.16508,0
                -3.94546,52.16508,0
                -3.41537,52.16256,0
                -3.20457,52.14781,0
                -2.99926,52.1318,0
                -2.90588,52.1457,0
                -2.88734,52.25933,0
                -2.90931,52.35211,0
                -2.87017,52.47734,0
                -2.7670711,52.616596,0
                -3.1314529,52.8835335,0
                -3.1249234,53.2512442,0
              </coordinates>
            </LinearRing>
          </outerBoundaryIs>
        </Polygon>
      </Placemark>
      <Placemark>
        <name>North East</name>
        <styleUrl>#poly-DB4436-1-79-nodesc</styleUrl>
        <Polygon>
          <outerBoundaryIs>
            <LinearRing>
              <tessellate>1</tessellate>
              <coordinates>
                -0.8610504,54.56887,0
                -1.0038704,54.59752,0
                -1.1521904,54.6643,0
                -1.2510604,54.75316,0
                -1.3169804,54.87976,0
                -1.4131104,55.03431,0
                -1.4927604,55.13179,0
                -1.4872704,55.19768,0
                -1.5586804,55.24781,0
                -1.5367104,55.31664,0
                -1.5806504,55.35881,0
                -1.5641704,55.40562,0
                -1.5943904,55.52241,0
                -1.6520604,55.58765,0
                -1.7811584,55.677584,0
                -2.2370914,55.614038,0
                -2.6696774,55.2744216,0
                -2.6834034,54.9563286,0
                -2.5966928,54.6565781,0
                -2.2837804,54.54498,0
                -2.2453304,54.54976,0
                -2.1313404,54.52108,0
                -1.8663004,54.53941,0
                -1.6740404,54.46125,0
                -1.3101104,54.40614,0
                -1.1137304,54.41893,0
                -0.7635404,54.51789,0
                -0.7196004,54.54578,0
                -0.8610504,54.56887,0
              </coordinates>
            </LinearRing>
          </outerBoundaryIs>
        </Polygon>
      </Placemark>
      <Placemark>
        <name><![CDATA[Scottish Highlands & Islands
]]></name>
        <styleUrl>#poly-DB4436-1-79-nodesc</styleUrl>
        <Polygon>
          <outerBoundaryIs>
            <LinearRing>
              <tessellate>1</tessellate>
              <coordinates>
                -0.5579564,60.7909448,0
                -0.7210266,60.8695219,0
                -0.9945923,60.8835349,0
                -1.3455994,60.735198,0
                -1.9491971,60.3452598,0
                -2.9416817,59.5146637,0
                -3.4665545,59.1697554,0
                -3.5353166,58.8694446,0
                -3.4728271,58.7091381,0
                -3.8378303,58.6455908,0
                -4.6604866,58.6686403,0
                -5.5207793,58.663313,0
                -6.1708878,58.6176581,0
                -7.2045942,58.2166299,0
                -7.279191,57.8640038,0
                -7.5995038,57.7320773,0
                -7.7169911,57.5029183,0
                -7.5915348,57.327209,0
                -7.7484225,56.7824291,0
                -7.4161308,56.6347163,0
                -7.130456,56.4560209,0
                -6.9765613,56.4201728,0
                -6.822859,56.4084367,0
                -6.4357379,56.4727905,0
                -6.4543561,56.2727479,0
                -6.0188255,56.2299627,0
                -6.3263809,56.0552157,0
                -6.2553386,55.9491732,0
                -6.4073829,55.9008365,0
                -6.51515,55.8339831,0
                -6.5611214,55.7524939,0
                -6.52744,55.6358246,0
                -6.3185217,55.5577263,0
                -6.1944111,55.5867074,0
                -6.0899011,55.6137153,0
                -5.9988684,55.66402,0
                -6.0003263,55.7621056,0
                -5.9109091,55.8035072,0
                -5.8601426,55.8649645,0
                -5.7790299,55.90636,0
                -5.686932,55.8645124,0
                -5.6067202,55.9216793,0
                -5.5581248,55.9351984,0
                -5.4646635,56.066272,0
                -5.1119946,56.2677292,0
                -4.7189735,56.4818136,0
                -3.8977539,56.8275404,0
                -3.5882081,56.892307,0
                -3.4026736,56.9334488,0
                -3.2385812,56.9715323,0
                -1.6593141,57.4977199,0
                -1.7477633,57.6353874,0
                -2.046269,57.7402698,0
                -2.5012374,57.6903655,0
                -3.3510369,57.7534697,0
                -3.9104519,57.6697591,0
                -3.742924,57.8357164,0
                -3.7609824,57.8973925,0
                -3.8890689,57.9122264,0
                -3.3887561,58.1889233,0
                -3.0253905,58.3616174,0
                -3.0271407,58.5292802,0
                -2.4502547,58.9994912,0
                -2.2286709,59.3185771,0
                -1.8999556,59.4382249,0
                -1.5587815,59.4675767,0
                -1.0300985,60.0137115,0
                -0.5579564,60.7909448,0
              </coordinates>
            </LinearRing>
          </outerBoundaryIs>
        </Polygon>
      </Placemark>
      <Placemark>
        <name><![CDATA[Devon & Cornwall]]></name>
        <styleUrl>#poly-DB4436-1-79-nodesc</styleUrl>
        <Polygon>
          <outerBoundaryIs>
            <LinearRing>
              <tessellate>1</tessellate>
              <coordinates>
                -3.334351,51.193115,0
                -3.477173,51.224088,0
                -3.713379,51.258477,0
                -3.999023,51.241286,0
                -4.202271,51.203442,0
                -4.356079,50.993014,0
                -4.42749,51.034486,0
                -4.53186,51.024121,0
                -4.559326,50.920351,0
                -4.603271,50.795519,0
                -4.768066,50.701677,0
                -4.806519,50.614617,0
                -5.026245,50.583237,0
                -5.114136,50.387508,0
                -5.383301,50.233152,0
                -5.542603,50.222609,0
                -5.718384,50.134664,0
                -5.690918,50.028917,0
                -5.50415,50.117056,0
                -5.361328,50.064192,0
                -5.202026,49.954754,0
                -5.048218,50.035974,0
                -5.103149,50.102964,0
                -5.015259,50.1241,0
                -4.784546,50.236665,0
                -4.696655,50.299867,0
                -4.454956,50.355976,0
                -4.224243,50.3139,0
                -3.982544,50.299867,0
                -3.845215,50.201517,0
                -3.641968,50.194485,0
                -3.641968,50.282319,0
                -3.521118,50.35948,0
                -3.477173,50.447011,0
                -3.521118,50.513427,0
                -3.400269,50.611132,0
                -3.268433,50.673835,0
                -3.103638,50.687758,0
                -2.911377,50.729502,0
                -3.240967,51.18623,0
                -3.334351,51.193115,0
              </coordinates>
            </LinearRing>
          </outerBoundaryIs>
        </Polygon>
      </Placemark>
      <Placemark>
        <name>South</name>
        <styleUrl>#poly-DB4436-1-79-nodesc</styleUrl>
        <Polygon>
          <outerBoundaryIs>
            <LinearRing>
              <tessellate>1</tessellate>
              <coordinates>
                -2.8840699,50.7380878,0
                -2.4486914,50.5176687,0
                -1.9473872,50.5822493,0
                -1.8897012,50.7276594,0
                -1.7454821,50.7224481,0
                -1.5738066,50.6702495,0
                -1.3073576,50.5778896,0
                -1.0766225,50.5848595,0
                -1.0161858,50.7207095,0
                -0.8788407,50.7519994,0
                -0.8294051,50.8249293,0
                -0.8527472,51.0551393,0
                -0.8170429,51.2300593,0
                -0.6920586,51.3743192,0
                -0.545102,51.415459,0
                -0.5354808,51.453129,0
                -0.5080175,51.501039,0
                -0.5341103,51.549739,0
                -1.1425487,51.6333595,0
                -1.4226252,51.5988765,0
                -1.6637722,51.5501667,0
                -2.1939111,51.0741404,0
                -3.1410695,51.0868863,0
                -2.8840699,50.7380878,0
              </coordinates>
            </LinearRing>
          </outerBoundaryIs>
        </Polygon>
      </Placemark>
      <Placemark>
        <name>East Midlands</name>
        <styleUrl>#poly-DB4436-1-79-nodesc</styleUrl>
        <Polygon>
          <outerBoundaryIs>
            <LinearRing>
              <tessellate>1</tessellate>
              <coordinates>
                -0.8878805,53.5625254,0
                -1.20855,53.3640504,0
                -1.4636369,53.3035756,0
                -1.4820059,53.2629318,0
                -2.0338397,53.4855884,0
                -1.9131903,52.898467,0
                -1.9101611,52.8216335,0
                -1.6670405,52.8182477,0
                -1.5985357,52.7797736,0
                -1.3046814,52.777624,0
                -0.9860788,52.7452057,0
                -0.6887588,52.7125651,0
                -0.4913488,52.659704,0
                -0.4051688,52.6592941,0
                0.3082406,52.8162283,0
                0.2219806,52.8332387,0
                0.1780406,52.8680795,0
                0.0874006,52.9078504,0
                0.0928905,52.9459313,0
                0.1505703,53.0021627,0
                0.2027603,53.0286034,0
                0.3291002,53.0632742,0
                0.35107,53.1325459,0
                0.3290998,53.2444486,0
                0.2357195,53.4019423,0
                0.1509993,53.5017147,0
                -0.0691508,53.5784263,0
                -0.308101,53.7168096,0
                -0.5580409,53.6907887,0
                -0.6267009,53.7168093,0
                -0.6805209,53.7245295,0
                -0.8336407,53.6954686,0
                -0.8878805,53.5625254,0
              </coordinates>
            </LinearRing>
          </outerBoundaryIs>
        </Polygon>
      </Placemark>
      <Placemark>
        <name>Isle of Man</name>
        <styleUrl>#poly-DB4436-1-79-nodesc</styleUrl>
        <Polygon>
          <outerBoundaryIs>
            <LinearRing>
              <tessellate>1</tessellate>
              <coordinates>
                -4.3503726,54.4244648,0
                -4.4040095,54.4151221,0
                -4.4699206,54.4009393,0
                -4.5357633,54.3781009,0
                -4.565426,54.3342783,0
                -4.6032827,54.291985,0
                -4.6438394,54.2519993,0
                -4.7172646,54.2280304,0
                -4.731586,54.1928057,0
                -4.7472472,54.1708223,0
                -4.7445912,54.1261539,0
                -4.8461228,54.0440191,0
                -4.8110862,54.034763,0
                -4.7084387,54.0712411,0
                -4.6758382,54.0561107,0
                -4.6250428,54.0424272,0
                -4.5914057,54.0802954,0
                -4.5632279,54.0875374,0
                -4.5227715,54.1108994,0
                -4.493271,54.1229804,0
                -4.3874514,54.184084,0
                -4.3833648,54.2189975,0
                -4.3325218,54.2635649,0
                -4.3023092,54.3012441,0
                -4.3506917,54.3128574,0
                -4.3757534,54.3292663,0
                -4.3719965,54.3586814,0
                -4.3572397,54.3896963,0
                -4.352428,54.4020872,0
                -4.3503726,54.4244648,0
              </coordinates>
            </LinearRing>
          </outerBoundaryIs>
        </Polygon>
      </Placemark>
      <Placemark>
        <name>South East Scotland</name>
        <styleUrl>#poly-DB4436-1-79-nodesc</styleUrl>
        <Polygon>
          <outerBoundaryIs>
            <LinearRing>
              <tessellate>1</tessellate>
              <coordinates>
                -1.7869551,57.4524475,0
                -3.2186109,56.9559444,0
                -3.8942701,56.8118909,0
                -4.696272,56.4796697,0
                -2.6171095,55.3234002,0
                -2.5297266,55.3962736,0
                -2.4309943,55.4737382,0
                -2.2531873,55.6137645,0
                -1.8769056,55.6881507,0
                -2.0834071,55.9091393,0
                -2.3094922,55.9496978,0
                -2.5055999,56.0272853,0
                -2.6011409,56.0706058,0
                -2.8215084,56.0670535,0
                -3.0442558,55.9807129,0
                -3.1386292,56.0002933,0
                -3.2111508,56.0367099,0
                -3.1482333,56.062881,0
                -3.1264385,56.1059028,0
                -2.934598,56.197833,0
                -2.8278211,56.1692943,0
                -2.7430674,56.1920066,0
                -2.5756265,56.2690591,0
                -2.7962606,56.3728552,0
                -2.7862761,56.4182078,0
                -2.7295294,56.4529162,0
                -2.520979,56.5592157,0
                -2.3972264,56.7326891,0
                -2.2394544,56.8426989,0
                -2.1540036,56.9963779,0
                -2.0342634,57.1429198,0
                -2.0556536,57.1582818,0
                -2.0476004,57.1956902,0
                -2.0012354,57.2526311,0
                -1.92167,57.339948,0
                -1.8372498,57.3932558,0
                -1.7869551,57.4524475,0
              </coordinates>
            </LinearRing>
          </outerBoundaryIs>
        </Polygon>
      </Placemark>
      <Placemark>
        <name><![CDATA[West of England & South Wales]]></name>
        <styleUrl>#poly-DB4436-1-79-nodesc</styleUrl>
        <Polygon>
          <outerBoundaryIs>
            <LinearRing>
              <tessellate>1</tessellate>
              <coordinates>
                -2.90107,52.13686,0
                -2.99858,52.12252,0
                -3.41674,52.15371,0
                -4.47418,52.15582,0
                -4.74334,52.12337,0
                -4.8175,52.05924,0
                -4.93011,52.02038,0
                -5.07568,52.03052,0
                -5.12237,51.96457,0
                -5.35308,51.89683,0
                -5.3366,51.85444,0
                -5.25695,51.86801,0
                -5.1416,51.86122,0
                -5.11138,51.78823,0
                -5.3613199,51.7491329,0
                -5.2926567,51.6538098,0
                -5.12237,51.68277,0
                -5.08667,51.66233,0
                -5.06195,51.62995,0
                -4.93286,51.59413,0
                -4.89166,51.62313,0
                -4.73236,51.65211,0
                -4.68841,51.73043,0
                -4.38079,51.73553,0
                -4.29565,51.66914,0
                -4.24896,51.64699,0
                -4.30938,51.60778,0
                -4.30938,51.57024,0
                -4.16381,51.53096,0
                -3.86718,51.61631,0
                -3.72436,51.48822,0
                -3.55957,51.38206,0
                -3.414,51.38892,0
                -3.19976,51.39577,0
                -3.01574,51.5395,0
                -2.9053979,51.5240093,0
                -2.7131468,51.5829529,0
                -2.980166,51.3918347,0
                -3.074327,51.218868,0
                -3.240967,51.18623,0
                -3.1514475,51.090556,0
                -2.1983274,51.0775754,0
                -1.686922,51.5515486,0
                -1.9052734,51.6446028,0
                -2.07641,51.71341,0
                -2.1255109,51.7858962,0
                -2.2588228,51.8399464,0
                -2.3291,51.84638,0
                -2.63328,51.9142,0
                -2.80151,52.01785,0
                -2.90107,52.13686,0
              </coordinates>
            </LinearRing>
          </outerBoundaryIs>
        </Polygon>
      </Placemark>
      <Placemark>
        <name>Lancashire</name>
        <styleUrl>#poly-DB4436-1-79-nodesc</styleUrl>
        <Polygon>
          <outerBoundaryIs>
            <LinearRing>
              <tessellate>1</tessellate>
              <coordinates>
                -2.8338106,54.1220172,0
                -2.9766233,54.0204912,0
                -2.8942315,53.9623648,0
                -3.1111968,53.9235688,0
                -3.1414079,53.5466773,0
                -3.182594,53.497896,0
                -3.2718692,53.3975071,0
                -3.1318001,53.2535621,0
                -2.8787759,53.2513033,0
                -2.8358615,53.2564319,0
                -2.8001581,53.2630043,0
                -2.7575935,53.2699895,0
                -2.7280701,53.2814862,0
                -2.6628467,53.2979018,0
                -2.5756494,53.3340033,0
                -2.4556644,53.4471226,0
                -2.4200797,53.4790761,0
                -2.3909543,53.4976938,0
                -2.3628035,53.5201515,0
                -2.316134,53.5348541,0
                -2.2639337,53.5548352,0
                -2.1372636,53.5892406,0
                -2.0967541,53.610835,0
                -2.0308406,53.6238641,0
                -2.1754213,53.8672737,0
                -2.2207363,53.991784,0
                -2.2880231,54.0268869,0
                -2.3010685,54.0430163,0
                -2.3278242,54.0744424,0
                -2.3539365,54.105861,0
                -2.3984363,54.1143043,0
                -2.4684695,54.1328133,0
                -2.4897539,54.1428694,0
                -2.8338106,54.1220172,0
              </coordinates>
            </LinearRing>
          </outerBoundaryIs>
        </Polygon>
      </Placemark>
      <Placemark>
        <name>South West Scotland</name>
        <styleUrl>#poly-DB4436-1-79-nodesc</styleUrl>
        <Polygon>
          <outerBoundaryIs>
            <LinearRing>
              <tessellate>1</tessellate>
              <coordinates>
                -4.7033176,56.4738179,0
                -5.0191884,56.3111463,0
                -5.1180698,56.2532072,0
                -5.1954022,56.2081405,0
                -5.2986702,56.1515559,0
                -5.4634634,56.0474298,0
                -5.54252,55.932251,0
                -5.6523006,55.8844815,0
                -5.7215473,55.7421882,0
                -5.8094015,55.6423963,0
                -5.7288141,55.5913663,0
                -5.7470676,55.4398337,0
                -5.8331217,55.3680451,0
                -5.8265627,55.2907113,0
                -5.5754073,55.2680644,0
                -5.4678835,55.3907096,0
                -5.4285228,55.5414346,0
                -5.2723657,55.4289375,0
                -5.0997742,55.4154781,0
                -5.0093691,55.4922491,0
                -5.007731,55.5238042,0
                -5.0810601,55.6001417,0
                -5.1096713,55.6951471,0
                -5.0249919,55.702318,0
                -4.9552398,55.6919449,0
                -4.8984431,55.6697218,0
                -4.8801252,55.6351526,0
                -4.8604974,55.6220855,0
                -4.7780567,55.6098887,0
                -4.7367068,55.5743095,0
                -4.7145674,55.5279056,0
                -4.6814435,55.4816364,0
                -4.7317373,55.4537258,0
                -4.7710318,55.4351569,0
                -4.8093281,55.4083727,0
                -4.8339054,55.3831328,0
                -4.8610823,55.3513683,0
                -4.8934214,55.284713,0
                -4.9472062,55.2245769,0
                -5.032851,55.1763312,0
                -5.1090469,55.0399445,0
                -5.1963435,55.0016553,0
                -5.2175125,54.916055,0
                -5.1204576,54.792779,0
                -4.9911167,54.6757314,0
                -4.8861405,54.6008731,0
                -4.8353487,54.6403963,0
                -4.7954515,54.6830813,0
                -4.8771417,54.7907967,0
                -4.8123547,54.8090202,0
                -4.7311025,54.7828676,0
                -4.6182559,54.7177605,0
                -4.5344462,54.6826268,0
                -4.3847015,54.6607331,0
                -4.271463,54.6830967,0
                -4.3246576,54.7545428,0
                -4.2977041,54.8100228,0
                -4.2402588,54.8108276,0
                -4.1141783,54.7419331,0
                -3.8843024,54.7728492,0
                -3.7033111,54.8509329,0
                -3.5830921,54.8494748,0
                -3.5380401,54.8677016,0
                -3.4792428,54.8985411,0
                -3.2956427,54.9680435,0
                -3.2183893,54.9688565,0
                -3.1376439,54.957061,0
                -3.06588,54.9833033,0
                -3.0264444,54.9859204,0
                -2.9523088,54.9944449,0
                -2.6996122,54.9668613,0
                -2.6824449,55.2563248,0
                -2.680914,55.2753903,0
                -2.6628953,55.2897614,0
                -2.6281976,55.3177178,0
                -4.7033176,56.4738179,0
              </coordinates>
            </LinearRing>
          </outerBoundaryIs>
        </Polygon>
      </Placemark>
      <Placemark>
        <name>London</name>
        <styleUrl>#poly-DB4436-1-79-nodesc</styleUrl>
        <Polygon>
          <outerBoundaryIs>
            <LinearRing>
              <tessellate>1</tessellate>
              <coordinates>
                -0.4332949,51.7170353,0
                -0.4337785,51.5874642,0
                -0.4523192,51.5499029,0
                -0.494894,51.4823855,0
                -0.5333678,51.4342376,0
                -0.5367824,51.4053448,0
                -0.4777267,51.3341813,0
                -0.4505958,51.3249574,0
                -0.420731,51.3170169,0
                -0.4008158,51.3111186,0
                -0.3733488,51.3150901,0
                -0.3417613,51.3187336,0
                -0.3043242,51.2983448,0
                -0.2765255,51.2929758,0
                -0.2524912,51.2745073,0
                -0.2210733,51.262266,0
                -0.195152,51.2654888,0
                -0.1762682,51.2710704,0
                -0.0890581,51.2611882,0
                -0.0547239,51.2633406,0
                -0.0272558,51.2697816,0
                -0.0166117,51.2746156,0
                0.0091405,51.2725751,0
                0.0369058,51.2773041,0
                0.0619294,51.278805,0
                0.1058111,51.2893043,0
                0.0960984,51.3219002,0
                0.1041612,51.3368637,0
                0.154718,51.371063,0
                0.179075,51.3779205,0
                0.2013864,51.4040581,0
                0.2391813,51.4331802,0
                0.2433007,51.4417404,0
                0.2460482,51.4520127,0
                0.2563809,51.4569579,0
                0.2803829,51.4665599,0
                0.3147176,51.4793917,0
                0.3394385,51.4545801,0
                0.3943741,51.4562917,0
                0.4369491,51.4639931,0
                0.4465628,51.5050448,0
                0.4733405,51.5037691,0
                0.5262193,51.5127378,0
                0.5976354,51.5135924,0
                0.6319701,51.5255566,0
                0.6264767,51.5366634,0
                0.6704251,51.5366634,0
                0.7487082,51.5332462,0
                0.6766054,51.5639917,0
                0.6330156,51.5827732,0
                0.590082,51.5998352,0
                0.4609837,51.6113505,0
                0.3888713,51.6034874,0
                0.3051041,51.5959963,0
                0.2611557,51.6134826,0
                0.177187,51.6305484,0
                -0.0049469,51.6752156,0
                -0.0967583,51.6952844,0
                -0.1817638,51.7152776,0
                -0.2566121,51.7203852,0
                -0.2820202,51.7218766,0
                -0.3129204,51.7067708,0
                -0.4332949,51.7170353,0
              </coordinates>
            </LinearRing>
          </outerBoundaryIs>
        </Polygon>
      </Placemark>
      <Placemark>
        <name>Line 21</name>
        <styleUrl>#line-DB4436-1200-nodesc</styleUrl>
        <LineString>
          <tessellate>1</tessellate>
          <coordinates>
            -1.6389132,52.7288512,0
            -1.6389132,52.7280196,0
          </coordinates>
        </LineString>
      </Placemark>
      <Placemark>
        <name><![CDATA[North West & North West Midlands]]></name>
        <styleUrl>#poly-DB4436-1-79-nodesc</styleUrl>
        <Polygon>
          <outerBoundaryIs>
            <LinearRing>
              <tessellate>1</tessellate>
              <coordinates>
                -1.9744234,53.1266113,0
                -2.039224,53.4844487,0
                -2.0426962,53.6159945,0
                -2.3806762,53.5000641,0
                -2.6390962,53.2993118,0
                -2.8534765,53.2436969,0
                -3.1170015,53.246753,0
                -3.1304602,52.8884379,0
                -2.7709321,52.6226687,0
                -2.5847886,52.5596149,0
                -2.3936705,52.4979198,0
                -2.2962373,52.4686243,0
                -2.1989229,52.4442684,0
                -2.1031017,52.4198371,0
                -2.0018892,52.398674,0
                -1.691054,52.3302779,0
                -1.3729219,52.2601985,0
                -1.4196138,52.4522691,0
                -1.174114,52.5285288,0
                -0.9444551,52.5776273,0
                -0.4583101,52.6576689,0
                -0.7233683,52.7123467,0
                -1.0164384,52.7430711,0
                -1.2824481,52.7730969,0
                -1.6091279,52.7791186,0
                -1.6722993,52.8156536,0
                -1.9030123,52.8206333,0
                -1.9634371,53.0490815,0
                -1.9716768,53.087039,0
                -1.9744234,53.1266113,0
              </coordinates>
            </LinearRing>
          </outerBoundaryIs>
        </Polygon>
      </Placemark>
    </Folder>
    <Folder>
      <name>New venues</name>
    </Folder>
    <Folder>
      <name>Untitled layer</name>
    </Folder>
    <Folder>
      <name>Untitled layer</name>
    </Folder>
    <Folder>
      <name>Untitled layer</name>
    </Folder>
    <Folder>
      <name>Untitled layer</name>
    </Folder>
  </Document>
</kml>
